[{"OBJECT_NAME":"ICESAT-2","OBJECT_ID":"2018-070A","EPOCH":"2026-03-09T22:54:12.225888","MEAN_MOTION":15.28328617,"ECCENTRICITY":0.00038245,"INCLINATION":91.9993,"RA_OF_ASC_NODE":264.2397,"ARG_OF_PERICENTER":123.8941,"MEAN_ANOMALY":236.2673,"EPHEMERIS_TYPE":0,"CLASSIFICATION_TYPE":"U","NORAD_CAT_ID":43613,"ELEMENT_SET_NO":999,"REV_AT_EPOCH":41730,"BSTAR":0.00014022643,"MEAN_MOTION_DOT":3.87e-5,"MEAN_MOTION_DDOT":0},{"OBJECT_NAME":"STARLINK-36459","OBJECT_ID":"2026-005Z","EPOCH":"2026-03-08T21:47:44.345760","MEAN_MOTION":15.27551516,"ECCENTRICITY":0.00014883,"INCLINATION":43.0005,"RA_OF_ASC_NODE":242.6774,"ARG_OF_PERICENTER":264.8725,"MEAN_ANOMALY":95.1957,"EPHEMERIS_TYPE":0,"CLASSIFICATION_TYPE":"U","NORAD_CAT_ID":67427,"ELEMENT_SET_NO":999,"REV_AT_EPOCH":856,"BSTAR":0.0012378071,"MEAN_MOTION_DOT":0.00033927,"MEAN_MOTION_DDOT":0}]
